#dP2022 12 29  0  0  0.00000000      96 __u+U IGS14 FIT  IAC
## 2242 345600.00000000   900.00000000 59942 0.0000000000000
+  117   C06C08C09C10C11C12C13C14C16C19C20C21C22C23C24C25C26
+        C27C28C29C30C32C33C34C36C37C38C39C40C41C42C43C44C45
+        C46E01E02E03E04E05E07E08E09E10E11E12E13E14E15E18E19
+        E21E24E25E26E27E30E31E33E34E36G01G02G03G04G05G06G07
+        G08G09G10G11G12G13G14G15G16G17G18G19G20G21G22G23G24
+        G25G26G27G29G30G31G32J02J03J04R01R02R03R04R05R07R08
+        R09R11R12R13R14R15R16R17R18R19R20R21R22R24R25  0  0
++         8 11  8 10 11 11 11 10  8  8  8 11  9  8 10  9  9
++         8  8  9  8  9 10  9  9  8  7  7  7  9  9  9  9  9
++         8  5  4  5  5  5  4  4  5  4  4  4  4  4  4  5  4
++         4  4  4  4  4  4  5  4  4  4  3  4  4  4  4  4  3
++         4  4  4  4  3  3  4  3  4  3  3  3  4  3  4  3  3
++         3  4  4  3  3  4  4 10 10 11  7  6  7  7  7  7  7
++         7  7  7  8  7  7  7  7  7  8  8  7  8  7  8  0  0
%c M  cc GPS ccc cccc cccc cccc cccc ccccc ccccc ccccc ccccc
%c cc cc ccc ccc cccc cccc cccc cccc ccccc ccccc ccccc ccccc
%f  1.2500000  1.025000000  0.00000000000  0.000000000000000
%f  0.0000000  0.000000000  0.00000000000  0.000000000000000
%i    0    0    0    0      0      0      0      0         0
%i    0    0    0    0      0      0      0      0         0
/* INFORMATION & ANALYSIS CENTER (IAC)            FINAL DATA
/* S/V CLOCKS ARE ALIGNED TO GNSS TIME                      
/* G:C1WC2W R:C1PC2P E:C1XC5X C:C2IC6I J:C1CC2S             
/* PCV:IGS20_2239 OL/AL:FES2004  NONE     YN ORB:CoN CLK:CoN
*  2022 12 29 10  0  0.00000000
PC06 -11686.142280  40349.847791    525.470450    210.738028
PC08 -16422.867871  22906.533004 -31421.894993    525.757625
PC09  -7193.466210  40338.747185   9031.055059     41.984509
PC10   4681.460751  32724.195984  26720.528890     42.588198
PC11  15601.399707  -9454.796802 -21035.456395   -208.529965
PC12  13000.289286  11165.909610 -21980.362563    369.890372
PC13  -9507.673547  24189.741802 -33108.510609    170.111374
PC14  20473.475611   -761.833839  18985.152530    313.092438
PC16 -13656.438778  39613.473150  -2921.143336     92.692801
PC19 -13537.126266   9085.160510 -22624.514134   -900.117745
PC20 -23501.045346  -6240.053683 -13665.296521    788.228778
PC21  20006.510390  18997.015235  -4234.108519   -921.397690
PC22   4706.722148  19939.767324 -18958.029756   -714.285975
PC23   6997.602505 -18336.403699 -19837.641872   -870.817405
PC24  25331.624346  -1398.515195  11569.789589   -611.480784
PC25  22268.019989 -15283.854779  -6983.795932     46.988249
PC26  14184.158783  10656.095304  21515.030396    -56.683041
PC27  -9469.120719 -19535.811589  17526.253682     73.472412
PC28   1989.466010 -27687.842898   2859.694488     52.744235
PC29 -12539.304668  19971.660075  14917.585778     60.188580
PC30 -15978.855356   -408.843234  22871.603693      1.254351
PC32 -20077.004038 -18886.853771   4357.739754   -666.953783
PC33  13609.885163  -9102.409338  22601.054492   -887.081029
PC34  16122.523160  -1036.947474 -22761.769853     71.733517
PC36 -23010.781047  14462.762687   6376.710467   -732.976647
PC37 -12663.860056 -11791.000070 -21893.077290   -864.840355
PC38 -22651.477708  24507.122997 -25858.253992     48.278904
PC39 -14323.190225  38625.407240  -8355.119316     -1.222350
PC40  -5399.509592  25598.990035  33116.160797    -11.274179
PC41  -4123.968958 -19770.962830  19308.606506   -433.268681
PC42  23821.006906   7193.738806  12687.582807   -928.911483
PC43  12993.293998 -19292.957726 -15438.919255     32.573113
PC44  10202.943419  19316.438731 -17353.099355    160.262666
PC45  -6667.158241  18200.595038  20079.198701    -40.756809
PC46 -25894.687109   2840.168732 -10076.872095    -22.794449
PE01 -12322.194723  13993.233485  22991.022759   -586.245708
PE02  11927.963603 -14135.805293 -23109.359911     11.463896
PE03   4025.295699 -23451.425596  17595.764283   -634.577134
PE04  10205.396506  27762.605053  -1040.887876    -24.494258
PE05  16228.980344  -5238.089267  24191.179281   -110.414252
PE07 -18777.404114 -15802.959601 -16547.427685    -10.961959
PE08 -10233.313068 -27750.040058   1112.031512    -10.619765
PE09  18689.519817  15995.478795  16464.823267   -780.972357
PE10   8812.373398  14246.384673 -24404.659095   -501.224246
PE11  16574.094675   4277.168663 -24153.078724    220.763485
PE12    479.804318  21101.540456 -20741.360278   -360.509765
PE13 -15956.334418  -5130.501936  24406.871850    430.195384
PE14  19832.018840  -2954.499771 -23919.426535     98.179102
PE15   -187.018608 -21254.258271  20613.966730    697.750897
PE18 -10607.971632  16640.653495  16946.304846   -572.191496
PE19  -5966.953337  21589.582705 -19345.777342  -3622.398123
PE21 -26887.801641   4036.510551  11712.168954   -503.121983
PE24  26823.554941   9649.933560   7898.377774  -1028.253914
PE25  27018.903684  -3833.083512 -11446.660652   -596.009322
PE26 -22290.769109  14425.988197  13098.653624  -1867.294624
PE27 -27294.311618  -9027.732284  -7089.671846   -474.712493
PE30 -10795.255835 -16848.748225 -21830.630950  -1116.780295
PE31  11605.337875  16653.301741  21544.303097   -511.907021
PE33 -15598.842703  24715.810947  -4658.892791   -455.094337
PE34  15436.511117 -24782.578608   4840.812188    -22.073421
PE36  22204.293190 -13833.795666 -13844.796103   -482.458951
PG01 -12633.752621  21624.048556  -8607.822979    231.327726
PG02   8486.108977 -23117.065104  10857.505388   -630.419924
PG03  -7006.113584  13553.344448 -21852.725601   -374.513242
PG04  -2205.459439  23484.292166 -12099.175261    -59.371024
PG05  20826.366000  -6851.929060  14902.447966   -109.913430
PG06  16407.977681   2371.501802 -20701.194584    549.284862
PG07    807.337497  18963.590049  18803.334886    267.308290
PG08  -9440.825306  14884.815526  19702.098948   -100.984160
PG09   7253.664857  25461.360306  -1867.782055   -245.595148
PG10 -22153.787207 -11524.198719   9665.800226    -18.141383
PG11  21547.400329  -8803.986573 -12750.080152    -66.804147
PG12   9129.786452 -12855.058512 -21635.039042   -321.649833
PG13  13713.551653  -7055.353197  21425.042068    450.215097
PG14  20076.869989  13420.567631  11198.471599    -59.706109
PG15   7759.588708 -16391.221376  18866.515410      0.002513
PG16 -23662.393655   1318.717993  12163.791001   -525.229026
PG17  12535.327599  20584.155112 -10621.623079    689.505508
PG18  -2479.243632 -17205.423268  20042.511207    -77.721999
PG19  15412.611979  10597.456050 -19189.084925    256.926271
PG20  26128.002999  -1372.712862   3845.710125    460.491821
PG21 -16875.276336  19911.204022   1712.937196    153.015238
PG22 -15759.716670  -7132.837452 -19779.201869    394.660179
PG23 -12816.369115 -14903.746820  17928.226401      1.067536
PG24  13656.745949 -22256.188913  -3731.372385     -6.007821
PG25  -2437.761515 -15999.806508 -21404.293568    406.462139
PG26 -26439.941627  -4030.626371    116.318426    239.376167
PG27 -14750.963320   2743.436172  21708.972678    140.719586
PG29  -3318.174917 -26004.499803  -4035.627123   -577.148546
PG30  11807.804201  10519.137612  21431.505741   -534.486990
PG31 -18145.602573  -1209.515168 -19671.157687   -204.718014
PG32 -15217.510996 -17582.569955 -12862.616863   -346.098845
PJ02 -29913.257387  21915.293768  25061.243885     -0.427684
PJ03 -29808.370832  28085.973304  14813.499720     -7.748630
PJ04 -24736.820929  21219.402545 -21562.008706    116.712687
PR01  16279.041203   3786.157262  19270.982219     20.353152
PR02   3321.333668 -12030.319129  22298.113939    -23.346029
PR03 -10650.800654 -20085.741615  11674.059022     69.943579
PR04 -18321.657873 -16977.311823  -5195.252456    170.365155
PR05 -16083.835214  -4668.295423 -19243.631992    105.329881
PR07  11161.288543  20134.979679 -10889.070603     47.004337
PR08  18468.607310  16711.913181   5473.477931    -68.747417
PR09 -15941.910993  11908.924234  15927.621350     95.632400
PR11  17933.086820   4458.672831  17595.860310     11.176636
PR12  24959.053388  -5177.896113    592.948045     23.958426
PR13  17488.944519 -11300.243705 -14749.299097    -30.419694
PR14  -1757.029288 -11009.747284 -22936.146823     24.156169
PR15 -18717.420582  -4194.038827 -16801.573892     92.052665
PR16 -24930.001491   5252.256874   -916.410608      9.275239
PR17   2186.914424 -22801.935032  11198.255498    591.084656
PR18  -6672.008165 -11081.593843  22017.231628     59.165701
PR19 -12164.285779   4775.807208  21913.665234   -216.290279
PR20 -11477.779778  21612.090351   7141.427728    -84.844625
PR21  -1473.920497  22123.212243 -12628.246968   -361.238557
PR22   7040.920374  10642.410466 -22052.939600     64.415534
PR24  10717.017871 -22236.704073  -6379.044203    135.960691
PR25  -3407.844977  22892.580225 -10735.879872     50.163992
EOF
